[{"OBJECT_NAME":"PRAETORIAN SDA_606","OBJECT_ID":"2025-203E","EPOCH":"2026-03-09T13:52:35.845824","MEAN_MOTION":13.83528814,"ECCENTRICITY":0.0007292,"INCLINATION":81.3028,"RA_OF_ASC_NODE":103.1011,"ARG_OF_PERICENTER":99.5197,"MEAN_ANOMALY":260.6784,"EPHEMERIS_TYPE":0,"CLASSIFICATION_TYPE":"U","NORAD_CAT_ID":65569,"ELEMENT_SET_NO":999,"REV_AT_EPOCH":2491,"BSTAR":0.0002082,"MEAN_MOTION_DOT":2.41e-6,"MEAN_MOTION_DDOT":0},{"OBJECT_NAME":"COSMOS 1375","OBJECT_ID":"1982-055A","EPOCH":"2026-03-09T21:54:05.323968","MEAN_MOTION":13.84882943,"ECCENTRICITY":0.00273633,"INCLINATION":65.8313,"RA_OF_ASC_NODE":293.9783,"ARG_OF_PERICENTER":236.6136,"MEAN_ANOMALY":123.2313,"EPHEMERIS_TYPE":0,"CLASSIFICATION_TYPE":"U","NORAD_CAT_ID":13259,"ELEMENT_SET_NO":999,"REV_AT_EPOCH":20033,"BSTAR":0.00038933447,"MEAN_MOTION_DOT":3.58e-6,"MEAN_MOTION_DDOT":0}]
